0 DELTA 1 DEB
1 10766U 76077BP  13282.03598050 -.00000022  00000-0  17831-3 0  9968
2 10766 101.9270 302.2838 0054032 053.6796 334.8486 12.31151134672023
0 DELTA 1 DEB
1 10766U 76077BP  13284.06385544 -.00000012  00000-0  25631-3 0  9972
2 10766 101.9267 304.2375 0054011 049.9746 322.6676 12.31151132672278
0 DELTA 1 DEB
1 10766U 76077BP  13286.53676428 -.00000016  00000-0  22090-3 0  9981
2 10766 101.9260 306.6198 0053966 045.4362 122.9575 12.31151339672574
0 DELTA 1 DEB
1 10766U 76077BP  13288.71809829 -.00000030  00000-0  11164-3 0  9993
2 10766 101.9256 308.7210 0053931 041.4242 070.9557 12.31151559672848
0 DELTA 1 DEB
1 10766U 76077BP  13291.06328633 -.00000048  00000-0 -43328-4 0    05
2 10766 101.9255 310.9799 0053916 037.1231 025.1684 12.31151795673135
0 DELTA 1 DEB
1 10766U 76077BP  13293.67485211 -.00000048  00000-0 -38652-4 0    15
2 10766 101.9256 313.4952 0053901 032.3437 079.9974 12.31151815673451
0 DELTA 1 DEB
1 10766U 76077BP  13296.01830517 -.00000029  00000-0  11961-3 0    21
2 10766 101.9256 315.7523 0053879 028.0350 026.5340 12.31151673673749
